DMSP 5D-3 F16 (USA 172) 
1 28054U 03048A   26193.34593950 -.00000036  00000+0  48149-5 0  9993
2 28054  98.9887 217.3399 0008177  78.2436 338.5563 14.14484842173045
METEOSAT-9 (MSG-2)      
1 28912U 05049B   26193.21556214  .00000118  00000+0  00000+0 0  9995
2 28912   9.4157  53.9162 0002045 356.7107   2.7516  1.00270590  7244
DMSP 5D-3 F17 (USA 191) 
1 29522U 06050A   26193.27217295 -.00000005  00000+0  19635-4 0  9990
2 29522  98.7386 199.3295 0009893 351.4452   8.6551 14.14996071 15973
FENGYUN 3A              
1 32958U 08026A   26192.85749161  .00000016  00000+0  28345-4 0  9996
2 32958  98.6887 133.2298 0009749  60.4614 299.7533 14.19576043938900
GOES 14                 
1 35491U 09033A   26193.30294566 -.00000355  00000+0  00000+0 0  9995
2 35491   1.7518  82.7295 0001870  40.4853  42.9126  1.00099521  6848
DMSP 5D-3 F18 (USA 210) 
1 35951U 09057A   26193.24514116  .00000166  00000+0  10895-3 0  9997
2 35951  98.9054 173.9617 0011050 173.7481 186.3832 14.14910401863139
EWS-G2 (GOES 15)        
1 36411U 10008A   26193.18219507  .00000023  00000+0  00000+0 0  9991
2 36411   1.3436  82.5028 0005204  53.7849 282.7295  1.00268209 59889
COMS 1                  
1 36744U 10032A   26193.05890144 -.00000246  00000+0  00000+0 0  9993
2 36744   4.8663  75.0558 0011254  14.7288 195.8952  0.99168704 51331
FENGYUN 3B              
1 37214U 10059A   26193.27271883  .00000318  00000+0  18768-3 0  9995
2 37214  98.9615 239.3919 0023087 114.5449 333.5887 14.14847563810976
SUOMI NPP               
1 37849U 11061A   26193.29256817  .00000019  00000+0  30266-4 0  9991
2 37849  98.7956 133.9978 0000626 232.3226 127.7893 14.19522282762009
METEOSAT-10 (MSG-3)     
1 38552U 12035B   26193.31989030 -.00000010  00000+0  00000+0 0  9998
2 38552   4.7287  60.8932 0001071  17.8496 326.6883  1.00270214 51105
METOP-B                 
1 38771U 12049A   26193.31916391  .00000045  00000+0  40426-4 0  9994
2 38771  98.6491 244.3153 0001055 273.3740  86.7317 14.21445854716839
INSAT-3D                
1 39216U 13038B   26193.30346566 -.00000339  00000+0  00000+0 0  9994
2 39216   1.9882  82.2230 0000505  85.6649   1.0771  1.00269791 47334
FENGYUN 3C              
1 39260U 13052A   26193.27420097  .00000023  00000+0  32869-4 0  9999
2 39260  98.4996 165.9992 0013796 314.9289  45.0765 14.15760370662117
METEOR-M 2              
1 40069U 14037A   26193.27477769  .00000418  00000+0  21061-3 0  9999
2 40069  98.5123 168.1263 0005335 336.5614  23.5320 14.21469838622887
HIMAWARI-8              
1 40267U 14060A   26193.30563234 -.00000273  00000+0  00000+0 0  9998
2 40267   0.0204 311.4735 0001045 217.7478  11.6698  1.00272419 43012
FENGYUN 2G              
1 40367U 14090A   26192.94955483 -.00000300  00000+0  00000+0 0  9993
2 40367   5.6976  72.5145 0004315 151.9124 146.5618  1.00261523 42248
METEOSAT-11 (MSG-4)     
1 40732U 15034A   26193.20836876  .00000061  00000+0  00000+0 0  9995
2 40732   3.2620  70.9534 0002230 353.1646 310.2476  1.00270928  7463
ELEKTRO-L 2             
1 41105U 15074A   26192.41948436 -.00000118  00000+0  00000+0 0  9996
2 41105   6.7510  70.2237 0000888 218.2194 137.3884  1.00272476 38749
SENTINEL-3A             
1 41335U 16011A   26193.32305701  .00000043  00000+0  35982-4 0  9994
2 41335  98.6238 260.3443 0001375  91.0370 269.0968 14.26739260541642
INSAT-3DR               
1 41752U 16054A   26193.17872299 -.00000074  00000+0  00000+0 0  9991
2 41752   0.0620  88.8483 0010675 181.4659 158.1038  1.00269102 36063
HIMAWARI-9              
1 41836U 16064A   26193.30571900  .00000000  00000+0  00000+0 0  9993
2 41836   0.0301  57.8421 0002478 124.9965 358.1825  1.00269075 35462
GOES 16                 
1 41866U 16071A   26193.18575841 -.00000089  00000+0  00000+0 0  9996
2 41866   0.3959  85.5072 0000520  97.9956  68.7623  1.00270889 35355
FENGYUN 4A              
1 41882U 16077A   26193.30233899 -.00000357  00000+0  00000+0 0  9996
2 41882   2.3826  80.0025 0008466 159.2177 283.5913  1.00269727 35189
CYGFM05                 
1 41884U 16078A   26193.11769398  .00016961  00000+0  22099-3 0  9999
2 41884  34.9566  95.3657 0006519   6.4855 353.5953 15.57754796532643
CYGFM04                 
1 41885U 16078B   26193.00823688  .00021763  00000+0  23212-3 0  9995
2 41885  34.9325  62.4944 0004592  48.1886 311.9231 15.62937948532888
CYGFM02                 
1 41886U 16078C   26192.95948331  .00026306  00000+0  24625-3 0  9999
2 41886  34.9407  56.6012 0005333  51.8258 308.2949 15.66185448533058
CYGFM01                 
1 41887U 16078D   26193.09523773  .00017038  00000+0  21606-3 0  9993
2 41887  34.9395  96.3657 0006609   0.1122 359.9603 15.58468472532595
CYGFM08                 
1 41888U 16078E   26193.07456773  .00019997  00000+0  22707-3 0  9996
2 41888  34.9432  75.4042 0006691  35.5507 324.5663 15.61329763532861
CYGFM07                 
1 41890U 16078G   26193.03209654  .00019782  00000+0  22382-3 0  9990
2 41890  34.9450  64.0074 0005022  48.6424 311.4733 15.61436171532880
CYGFM03                 
1 41891U 16078H   26193.06719734  .00020054  00000+0  22698-3 0  9993
2 41891  34.9404  65.7035 0005025  32.8807 327.2230 15.61425276532867
